{
  "type": "FeatureCollection",
  "name": "gebied",
  "crs": {
    "type": "name",
    "properties": {
      "name": "urn:ogc:def:crs:EPSG::28992"
    }
  },
  "features": [
    {
      "type": "Feature",
      "properties": {
        "naam": "Sneek-Tinga, de Lemmerweg en IJlst",
        "toelichting": "Werkgebied van het spel: RD X 169750-174130, Y 557650-560150 (4380 x 2500 m). Dit is precies zover als de BGT-download reikt (data/geo/bron/bgt_tinga.zip.zip), en daarmee de buitengrens van de wereld: de wijk Tinga en de buurt over de N7, de Lemmerweg naar het oosten, de polder ertussen, en in de zuidwesthoek de stad IJlst. Verder naar buiten is er geen ondergrond meer, dus daar houdt de wereld op. 3D BAG-tegels: 7-624-992 (het zuiden en IJlst), 8-624-1008 (het noordwesten), 9-632-1008, 9-632-1012 en 9-636-1008 (Tinga en het oosten). Ten oosten van X 173605 is er geen tegel meer; die panden staan als opgetrokken grondvlak in het spel."
      },
      "geometry": {
        "type": "Polygon",
        "coordinates": [
          [
            [
              169750,
              557650
            ],
            [
              174130,
              557650
            ],
            [
              174130,
              560150
            ],
            [
              169750,
              560150
            ],
            [
              169750,
              557650
            ]
          ]
        ]
      }
    }
  ]
}
