{"type":"FeatureCollection","name":"bgt_sensor","crs":{"type":"name","properties":{"name":"urn:ogc:def:crs:EPSG::28992"}},"features":[{"type":"Feature","properties":{"relatieveHoogteligging":0,"lokaalID":"P0021.6676e14b8f90467f93dbc35442e1a26f","bgt_status":"bestaand","function":"niet-bgt","plus_type":"detectielus","objecttype":"Sensor"},"geometry":{"type":"LineString","coordinates":[[172903.668,558677.686],[172906.327,558677.128],[172906.402,558677.122],[172910.094,558676.806],[172910.825,558676.744],[172910.838,558677.139],[172912.612,558676.955],[172912.785,558678.454],[172911,558678.638],[172910.838,558677.139]]}},{"type":"Feature","properties":{"relatieveHoogteligging":0,"lokaalID":"P0021.66a15f46d0dc4bdca7ddbe4344c2d1f2","bgt_status":"bestaand","function":"niet-bgt","plus_type":"detectielus","objecttype":"Sensor"},"geometry":{"type":"LineString","coordinates":[[172907.259,558676.482],[172909.077,558676.293],[172908.931,558674.799],[172907.135,558674.977],[172907.259,558676.482],[172907.274,558676.66],[172906.367,558676.724],[172906.295,558676.729],[172903.668,558677.686]]}},{"type":"Feature","properties":{"relatieveHoogteligging":0,"lokaalID":"P0021.8b28666e3ba6468e9146c8272672367a","bgt_status":"bestaand","function":"niet-bgt","plus_type":"detectielus","objecttype":"Sensor"},"geometry":{"type":"LineString","coordinates":[[172903.668,558677.686],[172906.344,558677.332],[172906.419,558677.326],[172907.326,558677.25],[172907.372,558677.451],[172909.183,558677.282],[172909.311,558678.765],[172907.512,558678.945],[172907.372,558677.451]]}},{"type":"Feature","properties":{"relatieveHoogteligging":0,"lokaalID":"P0021.fe8b935eb3e14f9aad194f8218357f8c","bgt_status":"bestaand","function":"niet-bgt","plus_type":"detectielus","objecttype":"Sensor"},"geometry":{"type":"LineString","coordinates":[[172903.668,558677.686],[172906.292,558676.929],[172906.384,558676.922],[172910.078,558676.643],[172910.816,558676.588],[172910.759,558676.191],[172910.646,558674.67],[172912.388,558674.504],[172912.543,558675.976],[172910.759,558676.191]]}}]}