{"type":"FeatureCollection","name":"bgt_put","crs":{"type":"name","properties":{"name":"urn:ogc:def:crs:EPSG::28992"}},"features":[{"type":"Feature","properties":{"relatieveHoogteligging":0,"lokaalID":"G1900.0a56288c8f5448138e1b75cfddd30bb4","bgt_status":"bestaand","function":"niet-bgt","plus_type":"kolk","objecttype":"Put"},"geometry":{"type":"Point","coordinates":[173091.153,559560.659]}},{"type":"Feature","properties":{"relatieveHoogteligging":0,"lokaalID":"G1900.239524be9e264affafaf77f6c1da379e","bgt_status":"bestaand","function":"niet-bgt","plus_type":"kolk","objecttype":"Put"},"geometry":{"type":"Point","coordinates":[173398.308,559578.617]}},{"type":"Feature","properties":{"relatieveHoogteligging":0,"lokaalID":"G1900.4abe3758d13b48be9c0ac57e2a8211e8","bgt_status":"bestaand","function":"niet-bgt","plus_type":"kolk","objecttype":"Put"},"geometry":{"type":"Point","coordinates":[173183.141,559552.522]}},{"type":"Feature","properties":{"relatieveHoogteligging":0,"lokaalID":"G1900.57bde4e2adc24e61adba3066959fd3df","bgt_status":"bestaand","function":"niet-bgt","plus_type":"kolk","objecttype":"Put"},"geometry":{"type":"Point","coordinates":[173146.34,559555.728]}},{"type":"Feature","properties":{"relatieveHoogteligging":0,"lokaalID":"G1900.5a78b4c84cce418eb825d3fd31b02049","bgt_status":"bestaand","function":"niet-bgt","plus_type":"kolk","objecttype":"Put"},"geometry":{"type":"Point","coordinates":[173032.507,559628.192]}},{"type":"Feature","properties":{"relatieveHoogteligging":0,"lokaalID":"G1900.5f87d7021a7c4179885f22a9d8f29811","bgt_status":"bestaand","function":"niet-bgt","plus_type":"kolk","objecttype":"Put"},"geometry":{"type":"Point","coordinates":[173355.526,559582.428]}},{"type":"Feature","properties":{"relatieveHoogteligging":0,"lokaalID":"G1900.65fb7b14d3774ae3b5e5824c61692be4","bgt_status":"bestaand","function":"niet-bgt","plus_type":"kolk","objecttype":"Put"},"geometry":{"type":"Point","coordinates":[173248.827,559571.336]}},{"type":"Feature","properties":{"relatieveHoogteligging":0,"lokaalID":"G1900.6b11a9bf90304383ad386c129d3442e0","bgt_status":"bestaand","function":"niet-bgt","plus_type":"kolk","objecttype":"Put"},"geometry":{"type":"Point","coordinates":[173468.545,559605.872]}},{"type":"Feature","properties":{"relatieveHoogteligging":0,"lokaalID":"G1900.6c180860d9ce42e381f1569d109cd3f4","bgt_status":"bestaand","function":"niet-bgt","plus_type":"kolk","objecttype":"Put"},"geometry":{"type":"Point","coordinates":[173273.895,559589.489]}},{"type":"Feature","properties":{"relatieveHoogteligging":0,"lokaalID":"G1900.8c7ab52e0ac342df93351aa9aa10f1c9","bgt_status":"bestaand","function":"niet-bgt","plus_type":"kolk","objecttype":"Put"},"geometry":{"type":"Point","coordinates":[173055.371,559568.609]}},{"type":"Feature","properties":{"relatieveHoogteligging":0,"lokaalID":"G1900.982e6b3f0baa4a4bac8c52c6bc13b7eb","bgt_status":"bestaand","function":"niet-bgt","plus_type":"kolk","objecttype":"Put"},"geometry":{"type":"Point","coordinates":[173219.973,559549.349]}},{"type":"Feature","properties":{"relatieveHoogteligging":0,"lokaalID":"G1900.9f60be16b38447a5b906e6d8064ae20c","bgt_status":"bestaand","function":"niet-bgt","plus_type":"kolk","objecttype":"Put"},"geometry":{"type":"Point","coordinates":[173127.896,559557.384]}},{"type":"Feature","properties":{"relatieveHoogteligging":0,"lokaalID":"G1900.a5488f226b4d4b74ad0b950ba6244e4a","bgt_status":"bestaand","function":"niet-bgt","plus_type":"kolk","objecttype":"Put"},"geometry":{"type":"Point","coordinates":[173031.545,559615.725]}},{"type":"Feature","properties":{"relatieveHoogteligging":0,"lokaalID":"G1900.ab00c6e3dc8045a4b303404066b850f2","bgt_status":"bestaand","function":"niet-bgt","plus_type":"kolk","objecttype":"Put"},"geometry":{"type":"Point","coordinates":[173417.399,559583.365]}},{"type":"Feature","properties":{"relatieveHoogteligging":0,"lokaalID":"G1900.acf05c6323694a7b9f7e29bc2dc9fa3d","bgt_status":"bestaand","function":"niet-bgt","plus_type":"kolk","objecttype":"Put"},"geometry":{"type":"Point","coordinates":[173041.723,559580.979]}},{"type":"Feature","properties":{"relatieveHoogteligging":0,"lokaalID":"G1900.afa88c83d5c843cdade142553d38cd1e","bgt_status":"bestaand","function":"niet-bgt","plus_type":"kolk","objecttype":"Put"},"geometry":{"type":"Point","coordinates":[173072.708,559562.473]}},{"type":"Feature","properties":{"relatieveHoogteligging":0,"lokaalID":"G1900.b4349f889fd2488e96717b84ecf8e580","bgt_status":"bestaand","function":"niet-bgt","plus_type":"kolk","objecttype":"Put"},"geometry":{"type":"Point","coordinates":[173109.536,559559.016]}},{"type":"Feature","properties":{"relatieveHoogteligging":0,"lokaalID":"G1900.b53ef23f96b44a50a2875fe650794f81","bgt_status":"bestaand","function":"niet-bgt","plus_type":"kolk","objecttype":"Put"},"geometry":{"type":"Point","coordinates":[173295.359,559587.687]}},{"type":"Feature","properties":{"relatieveHoogteligging":0,"lokaalID":"G1900.c0975e7f7d35480b823967aceba26309","bgt_status":"bestaand","function":"niet-bgt","plus_type":"kolk","objecttype":"Put"},"geometry":{"type":"Point","coordinates":[173335.134,559584.181]}},{"type":"Feature","properties":{"relatieveHoogteligging":0,"lokaalID":"G1900.c9ba45c4122c4613b19e34f5c065682d","bgt_status":"bestaand","function":"niet-bgt","plus_type":"kolk","objecttype":"Put"},"geometry":{"type":"Point","coordinates":[173164.712,559554.085]}},{"type":"Feature","properties":{"relatieveHoogteligging":0,"lokaalID":"G1900.cbf6229d5fe54e6eb8e123e34eb7fb8c","bgt_status":"bestaand","function":"niet-bgt","plus_type":"kolk","objecttype":"Put"},"geometry":{"type":"Point","coordinates":[173237.578,559554.328]}},{"type":"Feature","properties":{"relatieveHoogteligging":0,"lokaalID":"G1900.cc8f1a4eb7bf465d99488dd02ba26283","bgt_status":"bestaand","function":"niet-bgt","plus_type":"kolk","objecttype":"Put"},"geometry":{"type":"Point","coordinates":[173259.334,559585.021]}},{"type":"Feature","properties":{"relatieveHoogteligging":0,"lokaalID":"G1900.d10ed19aa23c487a895b0d6b356324c4","bgt_status":"bestaand","function":"niet-bgt","plus_type":"kolk","objecttype":"Put"},"geometry":{"type":"Point","coordinates":[173201.565,559550.883]}},{"type":"Feature","properties":{"relatieveHoogteligging":0,"lokaalID":"G1900.ddaf9de1071146b491052a7e9b0b44fd","bgt_status":"bestaand","function":"niet-bgt","plus_type":"kolk","objecttype":"Put"},"geometry":{"type":"Point","coordinates":[173416.668,559576.998]}},{"type":"Feature","properties":{"relatieveHoogteligging":0,"lokaalID":"G1900.f3e5a954f8f24349ba8f6fb8e72d61fa","bgt_status":"bestaand","function":"niet-bgt","plus_type":"kolk","objecttype":"Put"},"geometry":{"type":"Point","coordinates":[173033.444,559597.378]}},{"type":"Feature","properties":{"relatieveHoogteligging":0,"lokaalID":"G1900.fc298c0286ac4f05a7577c1e04e90cbd","bgt_status":"bestaand","function":"niet-bgt","plus_type":"kolk","objecttype":"Put"},"geometry":{"type":"Point","coordinates":[173376.917,559580.467]}},{"type":"Feature","properties":{"relatieveHoogteligging":0,"lokaalID":"G1900.fc62528ad084483898961d9609ba2eec","bgt_status":"bestaand","function":"niet-bgt","plus_type":"kolk","objecttype":"Put"},"geometry":{"type":"Point","coordinates":[173436.832,559588.137]}},{"type":"Feature","properties":{"relatieveHoogteligging":0,"lokaalID":"G1900.fe136823dbdb4b45a21b3960da73126d","bgt_status":"bestaand","function":"niet-bgt","plus_type":"kolk","objecttype":"Put"},"geometry":{"type":"Point","coordinates":[173316.762,559585.824]}},{"type":"Feature","properties":{"relatieveHoogteligging":0,"lokaalID":"P0021.12a5a6da884946279c57681aa29aa423","bgt_status":"bestaand","function":"niet-bgt","plus_type":"kolk","objecttype":"Put"},"geometry":{"type":"Point","coordinates":[172873.568,558273.276]}},{"type":"Feature","properties":{"relatieveHoogteligging":0,"lokaalID":"P0021.207baec21b4641758cd69d225f9cb85c","bgt_status":"bestaand","function":"niet-bgt","plus_type":"kolk","objecttype":"Put"},"geometry":{"type":"Point","coordinates":[172849.98,558302.661]}},{"type":"Feature","properties":{"relatieveHoogteligging":0,"lokaalID":"P0021.94e288f6950e4632a470deac21f57421","bgt_status":"bestaand","function":"niet-bgt","plus_type":"kolk","objecttype":"Put"},"geometry":{"type":"Point","coordinates":[172873.623,558279.6]}},{"type":"Feature","properties":{"relatieveHoogteligging":0,"lokaalID":"P0021.9cc631c110ed4c04adf8f5e5edc6dc75","bgt_status":"bestaand","function":"niet-bgt","plus_type":"kolk","objecttype":"Put"},"geometry":{"type":"Point","coordinates":[172870.942,558291.492]}},{"type":"Feature","properties":{"relatieveHoogteligging":0,"lokaalID":"P0021.a22babaae024422e809b16ed6a2e19d8","bgt_status":"bestaand","function":"niet-bgt","plus_type":"kolk","objecttype":"Put"},"geometry":{"type":"Point","coordinates":[172850.514,558282.746]}},{"type":"Feature","properties":{"relatieveHoogteligging":0,"lokaalID":"P0021.c1541fdc470d44ca97af10f801dfee16","bgt_status":"bestaand","function":"niet-bgt","plus_type":"kolk","objecttype":"Put"},"geometry":{"type":"Point","coordinates":[172888.936,558273.402]}},{"type":"Feature","properties":{"relatieveHoogteligging":0,"lokaalID":"P0021.cc2a2dbca8dc43d9aab53f70263e0601","bgt_status":"bestaand","function":"niet-bgt","plus_type":"kolk","objecttype":"Put"},"geometry":{"type":"Point","coordinates":[172868.083,558303.697]}},{"type":"Feature","properties":{"relatieveHoogteligging":0,"lokaalID":"G1900.8266cd278ccf4de3adc538c72b539dbd","bgt_status":"bestaand","function":"niet-bgt","plus_type":"kolk","objecttype":"Put"},"geometry":{"type":"Point","coordinates":[173013.848,559630.784]}},{"type":"Feature","properties":{"relatieveHoogteligging":0,"lokaalID":"G1900.dbe803df1f9b4677987bb95c22ff5071","bgt_status":"bestaand","function":"niet-bgt","plus_type":"kolk","objecttype":"Put"},"geometry":{"type":"Point","coordinates":[173002.889,559628.855]}},{"type":"Feature","properties":{"relatieveHoogteligging":0,"lokaalID":"G1900.62ba55207b8f41d2b95f452a3035eeb5","bgt_status":"bestaand","function":"niet-bgt","plus_type":"kolk","objecttype":"Put"},"geometry":{"type":"Point","coordinates":[173475.173,559625.53]}}]}