{"type":"FeatureCollection","name":"bgt_weginrichtingselement","crs":{"type":"name","properties":{"name":"urn:ogc:def:crs:EPSG::28992"}},"features":[{"type":"Feature","properties":{"relatieveHoogteligging":0,"lokaalID":"G1900.5bf6e753a62b4ed6b3a72dbea5a332ef","bgt_status":"bestaand","function":"niet-bgt","plus_type":"wildrooster","objecttype":"Weginrichtingselement"},"geometry":{"type":"Polygon","coordinates":[[[170685.155,558051.857],[170684.842,558053.37],[170682.674,558052.92],[170682.92,558051.41],[170683.078,558050.436],[170685.359,558050.875],[170685.155,558051.857]]]}},{"type":"Feature","properties":{"relatieveHoogteligging":0,"lokaalID":"L0004.049e9670a5ab44f1a6adf60f36858a57","bgt_status":"bestaand","function":"niet-bgt","plus_type":"rooster","objecttype":"Weginrichtingselement"},"geometry":{"type":"Polygon","coordinates":[[[171039.883,559242.385],[171037.612,559240.536],[171038.117,559239.915],[171040.395,559241.77],[171039.883,559242.385]]]}},{"type":"Feature","properties":{"relatieveHoogteligging":1,"lokaalID":"L0004.0e38896201644494a0fca5531996db91","bgt_status":"bestaand","function":"niet-bgt","plus_type":"balustrade","objecttype":"Weginrichtingselement"},"geometry":{"type":"LineString","coordinates":[[171910.483,559961.433],[171880.532,559936.476]]}},{"type":"Feature","properties":{"relatieveHoogteligging":1,"lokaalID":"L0004.80ad3b143c2b4d519e03ceaa30c98dae","bgt_status":"bestaand","function":"niet-bgt","plus_type":"rooster","objecttype":"Weginrichtingselement"},"geometry":{"type":"Polygon","coordinates":[[[171440.563,559577.447],[171436.62,559574.138],[171438.111,559572.386],[171442.023,559575.67],[171440.563,559577.447]]]}},{"type":"Feature","properties":{"relatieveHoogteligging":0,"lokaalID":"L0004.adf7eaa2cc81471ea792b920c5d59491","bgt_status":"bestaand","function":"niet-bgt","plus_type":"rooster","objecttype":"Weginrichtingselement"},"geometry":{"type":"Polygon","coordinates":[[[171042.987,559243.901],[171045.295,559245.771],[171044.791,559246.392],[171042.475,559244.516],[171042.987,559243.901]]]}},{"type":"Feature","properties":{"relatieveHoogteligging":1,"lokaalID":"L0004.e0338d9dd04746339ccc08b92aa2b9b5","bgt_status":"bestaand","function":"niet-bgt","plus_type":"balustrade","objecttype":"Weginrichtingselement"},"geometry":{"type":"LineString","coordinates":[[171905.881,559966.956],[171875.929,559942]]}},{"type":"Feature","properties":{"relatieveHoogteligging":1,"lokaalID":"L0004.e36a5cdf49c3492fb5fd35bf0074f53f","bgt_status":"bestaand","function":"niet-bgt","plus_type":"balustrade","objecttype":"Weginrichtingselement"},"geometry":{"type":"LineString","coordinates":[[171440.663,559577.596],[171436.458,559574.067]]}},{"type":"Feature","properties":{"relatieveHoogteligging":0,"lokaalID":"P0021.07c173631f4444b6ac4191b3ef3e9957","bgt_status":"bestaand","function":"niet-bgt","plus_type":"geleideconstructie","objecttype":"Weginrichtingselement"},"geometry":{"type":"LineString","coordinates":[[172858.374,558193.18],[172858.794,558199.272],[172859.255,558211.236],[172859.251,558223.265],[172858.867,558231.281],[172858.087,558243.149],[172857.546,558249.721],[172856.446,558263.078],[172855.932,558267.096],[172854.867,558273.185]]}},{"type":"Feature","properties":{"relatieveHoogteligging":0,"lokaalID":"P0021.523ce8f6815e4f46a6c885877df26ad7","bgt_status":"bestaand","function":"niet-bgt","plus_type":"geleideconstructie","objecttype":"Weginrichtingselement"},"geometry":{"type":"LineString","coordinates":[[172866.515,558328.032],[172867.903,558331.175],[172869.393,558334.94],[172870.65,558338.697],[172871.851,558342.453],[172872.876,558346.346],[172873.684,558350.713],[172874.332,558354.211],[172874.89,558358.19],[172875.283,558362.143],[172877.764,558390.054],[172878.561,558399.13],[172879.866,558413.984],[172881.704,558433.898],[172882.697,558445.835],[172883.032,558449.336],[172883.456,558453.762],[172883.587,558454.959],[172883.718,558456.153],[172884.329,558461.722],[172885.354,558469.668],[172886.692,558477.56],[172887.984,558485.471],[172889.112,558493.334],[172890.097,558501.267],[172891.9,558521.725],[172894.247,558547.355],[172894.786,558553.242],[172897.112,558580.941],[172898.199,558592.882],[172898.811,558600.872],[172899.269,558608.829],[172899.492,558616.811],[172899.364,558624.869],[172898.951,558635.42]]}},{"type":"Feature","properties":{"relatieveHoogteligging":0,"lokaalID":"G1900.478f659ef31f4f9d9da68ed4b8f5909f","bgt_status":"bestaand","function":"niet-bgt","plus_type":"boomspiegel","objecttype":"Weginrichtingselement"},"geometry":{"type":"Polygon","coordinates":[[[173411.284,559639.74],[173411.067,559637.787],[173412.857,559637.516],[173413.128,559639.523],[173411.284,559639.74]]]}},{"type":"Feature","properties":{"relatieveHoogteligging":0,"lokaalID":"G1900.550e0f4f43364847abeda19756139442","bgt_status":"bestaand","function":"niet-bgt","plus_type":"boomspiegel","objecttype":"Weginrichtingselement"},"geometry":{"type":"Polygon","coordinates":[[[173404.396,559623.74],[173404.125,559621.896],[173406.186,559621.517],[173406.403,559623.469],[173404.396,559623.74]]]}},{"type":"Feature","properties":{"relatieveHoogteligging":0,"lokaalID":"G1900.9222b980f6db41848136b4858caf2b91","bgt_status":"bestaand","function":"niet-bgt","plus_type":"boomspiegel","objecttype":"Weginrichtingselement"},"geometry":{"type":"Polygon","coordinates":[[[173401.521,559636.757],[173401.359,559634.75],[173403.203,559634.533],[173403.42,559636.486],[173401.521,559636.757]]]}},{"type":"Feature","properties":{"relatieveHoogteligging":0,"lokaalID":"G1900.993abf1d81104a1da9cd10c54066c87b","bgt_status":"bestaand","function":"niet-bgt","plus_type":"boomspiegel","objecttype":"Weginrichtingselement"},"geometry":{"type":"Polygon","coordinates":[[[173407.596,559647.875],[173407.379,559646.031],[173409.114,559645.76],[173409.331,559647.712],[173407.596,559647.875]]]}},{"type":"Feature","properties":{"relatieveHoogteligging":0,"lokaalID":"G1900.e018c0fb4c5849958a683bc1f65d322a","bgt_status":"bestaand","function":"niet-bgt","plus_type":"boomspiegel","objecttype":"Weginrichtingselement"},"geometry":{"type":"Polygon","coordinates":[[[173410.199,559631.876],[173409.982,559630.086],[173411.772,559629.76],[173412.043,559631.659],[173410.199,559631.876]]]}},{"type":"Feature","properties":{"relatieveHoogteligging":0,"lokaalID":"G1900.78877e4cb11740c5b5fbf47fb5f3ae6c","bgt_status":"bestaand","function":"niet-bgt","plus_type":"boomspiegel","objecttype":"Weginrichtingselement"},"geometry":{"type":"Polygon","coordinates":[[[173869.049,559055.203],[173869.136,559055.089],[173869.251,559055.001],[173869.384,559054.946],[173869.527,559054.927],[173869.67,559054.946],[173869.804,559055.001],[173869.918,559055.089],[173870.006,559055.203],[173870.061,559055.336],[173870.08,559055.48],[173870.061,559055.623],[173870.006,559055.756],[173869.918,559055.87],[173869.804,559055.958],[173869.67,559056.013],[173869.527,559056.032],[173869.384,559056.013],[173869.251,559055.958],[173869.136,559055.87],[173869.049,559055.756],[173868.993,559055.623],[173868.975,559055.48],[173868.993,559055.336],[173869.049,559055.203]]]}},{"type":"Feature","properties":{"relatieveHoogteligging":0,"lokaalID":"G1900.a39b7c9bcb5c417c806b522c714ee6f8","bgt_status":"bestaand","function":"niet-bgt","plus_type":"boomspiegel","objecttype":"Weginrichtingselement"},"geometry":{"type":"Polygon","coordinates":[[[173843.759,559135.774],[173843.34,559134.857],[173844.635,559134.289],[173845.062,559135.221],[173843.759,559135.774]]]}},{"type":"Feature","properties":{"relatieveHoogteligging":0,"lokaalID":"G1900.b830c0f39888495fb39abc9ecb370ae6","bgt_status":"bestaand","function":"niet-bgt","plus_type":"boomspiegel","objecttype":"Weginrichtingselement"},"geometry":{"type":"Polygon","coordinates":[[[173856.061,559172.665],[173855.73,559173.534],[173854.687,559173.092],[173855.05,559172.223],[173856.061,559172.665]]]}},{"type":"Feature","properties":{"relatieveHoogteligging":0,"lokaalID":"G1900.ce4e8f7b88564751823339dd1db8bf7d","bgt_status":"bestaand","function":"niet-bgt","plus_type":"boomspiegel","objecttype":"Weginrichtingselement"},"geometry":{"type":"Polygon","coordinates":[[[173834.566,559147.535],[173834.187,559148.467],[173833.081,559147.946],[173833.508,559147.061],[173834.566,559147.535]]]}},{"type":"Feature","properties":{"relatieveHoogteligging":0,"lokaalID":"G1900.ec23e01024ee4d388534f3272c2d1a86","bgt_status":"bestaand","function":"niet-bgt","plus_type":"boomspiegel","objecttype":"Weginrichtingselement"},"geometry":{"type":"Polygon","coordinates":[[[173840.287,559167.175],[173840.919,559165.879],[173841.977,559166.401],[173841.392,559167.649],[173840.287,559167.175]]]}}]}