{"type":"FeatureCollection","name":"bgt_spoor","crs":{"type":"name","properties":{"name":"urn:ogc:def:crs:EPSG::28992"}},"features":[{"type":"Feature","properties":{"relatieveHoogteligging":0,"lokaalID":"L0004.f082fcd0dc924de4bb6eecd8b917f332","bgt_status":"bestaand","function":"trein"},"geometry":{"type":"LineString","coordinates":[[172437.273,560405.866],[172390.294,560366.486],[172336.796,560321.912],[172218.599,560223.031],[172111.481,560133.637],[172009.635,560048.435],[171925.782,559978.57],[171908.351,559963.992]]}},{"type":"Feature","properties":{"relatieveHoogteligging":0,"lokaalID":"L0004.d61f4a6c69c34505b28cff4bdf68fcae","bgt_status":"bestaand","function":"trein"},"geometry":{"type":"LineString","coordinates":[[171878.444,559938.983],[171762.881,559842.34],[171586.218,559694.786],[171516.408,559636.345],[171503.264,559625.427],[171488.941,559613.36],[171442.858,559575.006]]}},{"type":"Feature","properties":{"relatieveHoogteligging":1,"lokaalID":"L0004.9c9e7cc59f7f481aa759e1ff71e3b81b","bgt_status":"bestaand","function":"trein"},"geometry":{"type":"LineString","coordinates":[[171908.351,559963.992],[171878.444,559938.983]]}}]}