{"type":"FeatureCollection","name":"bgt_vegetatieobject","crs":{"type":"name","properties":{"name":"urn:ogc:def:crs:EPSG::28992"}},"features":[{"type":"Feature","properties":{"relatieveHoogteligging":0,"lokaalID":"G1900.341bb08dae734bb69f17d1d91aaf6754","bgt_status":"bestaand","class":"niet-bgt","plus_type":"haag"},"geometry":{"type":"Polygon","coordinates":[[[171926.966,559908.202],[171927.172,559907.747],[171929.037,559908.586],[171930.88,559909.21],[171933.836,559910.339],[171935.246,559911.336],[171935.033,559911.677],[171933.614,559910.79],[171930.765,559909.702],[171928.955,559909.086],[171926.966,559908.202]]]}},{"type":"Feature","properties":{"relatieveHoogteligging":0,"lokaalID":"G1900.a107bd61c6db4027a0e994c645f96bb7","bgt_status":"bestaand","class":"niet-bgt","plus_type":"haag"},"geometry":{"type":"Polygon","coordinates":[[[171954.617,559930.944],[171955.038,559930.673],[171957.781,559934.941],[171960.628,559940.227],[171960.187,559940.464],[171957.35,559935.195],[171954.617,559930.944]]]}},{"type":"Feature","properties":{"relatieveHoogteligging":0,"lokaalID":"G1900.9e52ac77b7874af4bf8718c9f428c1bc","bgt_status":"bestaand","class":"niet-bgt","plus_type":"haag"},"geometry":{"type":"Polygon","coordinates":[[[172002.69,559308.93],[172000.486,559311.823],[171999.448,559313.32],[171998.489,559314.697],[171997.491,559316.254],[171996.393,559317.711],[171995.555,559319.148],[171994.617,559320.406],[171992.82,559323.48],[171991.773,559325.156],[171991.762,559325.174],[171991.509,559325.022],[171992.55,559323.18],[171993.49,559321.62],[171994.37,559320.2],[171995.23,559318.94],[171996.15,559317.48],[171997.23,559315.96],[171998.21,559314.46],[171999.19,559313.04],[172000,559311.9],[172000.25,559311.56],[172001.17,559310.24],[172002.349,559308.675],[172002.69,559308.93]]]}},{"type":"Feature","properties":{"relatieveHoogteligging":0,"lokaalID":"G1900.623eb94038ad4d9a9c5457179a32f55e","bgt_status":"bestaand","class":"niet-bgt","plus_type":"haag"},"geometry":{"type":"Polygon","coordinates":[[[171849.27,559935.941],[171852.877,559936.523],[171856.213,559937.415],[171858.501,559938.578],[171862.497,559941.061],[171864.63,559943.039],[171866.259,559945.172],[171866.686,559945.987],[171866.018,559946.343],[171865.602,559946.62],[171864.582,559945.09],[171863.379,559943.702],[171862.098,559942.48],[171860.093,559940.862],[171856.932,559938.868],[171854.178,559937.848],[171851.017,559937.236],[171846.937,559937.032],[171842.449,559937.848],[171820.011,559950.496],[171819.765,559950.06],[171819.442,559949.439],[171832.742,559942.04],[171841.473,559937.182],[171844.421,559936.29],[171849.27,559935.941]]]}},{"type":"Feature","properties":{"relatieveHoogteligging":0,"lokaalID":"G1900.35e9e517cf824c45ae901244c302d713","bgt_status":"bestaand","class":"niet-bgt","plus_type":"haag"},"geometry":{"type":"Polygon","coordinates":[[[172619.233,559994.393],[172620.024,560004.624],[172619.526,560004.662],[172618.732,559994.428],[172619.233,559994.393]]]}},{"type":"Feature","properties":{"relatieveHoogteligging":0,"lokaalID":"G1900.b9ebbf8eb11b492e9bff28aa84b13c01","bgt_status":"bestaand","class":"niet-bgt","plus_type":"haag"},"geometry":{"type":"Polygon","coordinates":[[[172606.666,559992.812],[172607.164,559992.771],[172607.595,559997.885],[172607.097,559997.927],[172606.666,559992.812]]]}},{"type":"Feature","properties":{"relatieveHoogteligging":0,"lokaalID":"G1900.d244aeb174d04936a8a95097f33be2a3","bgt_status":"bestaand","class":"niet-bgt","plus_type":"haag"},"geometry":{"type":"Polygon","coordinates":[[[172545.607,559139.816],[172545.722,559140.989],[172542.804,559141.256],[172542.651,559140.089],[172545.607,559139.816]]]}},{"type":"Feature","properties":{"relatieveHoogteligging":0,"lokaalID":"G1900.c27b554f48eb4ba58fdb844c64c00271","bgt_status":"bestaand","class":"niet-bgt","plus_type":"haag"},"geometry":{"type":"Polygon","coordinates":[[[172894.787,559796.476],[172895.527,559796.188],[172903.689,559818.85],[172903.074,559819.068],[172894.787,559796.476]]]}},{"type":"Feature","properties":{"relatieveHoogteligging":0,"lokaalID":"G1900.e08c879144d944b8a96eecac68d69699","bgt_status":"bestaand","class":"niet-bgt","plus_type":"haag"},"geometry":{"type":"Polygon","coordinates":[[[172766.655,558918.656],[172764.992,558920.921],[172762.514,558921.249],[172755.953,558922.118],[172753.554,558920.428],[172754.168,558919.841],[172756.054,558921.325],[172764.68,558920.143],[172766.038,558918.231],[172766.655,558918.656]]]}},{"type":"Feature","properties":{"relatieveHoogteligging":0,"lokaalID":"G1900.dcafe8b7334e43ed9304c588cbe54161","bgt_status":"bestaand","class":"niet-bgt","plus_type":"haag"},"geometry":{"type":"Polygon","coordinates":[[[172672.532,558998.204],[172675.026,559017.025],[172673.946,559017.113],[172671.383,558998.514],[172672.532,558998.204]]]}},{"type":"Feature","properties":{"relatieveHoogteligging":0,"lokaalID":"G1900.c86bccb78eae4788afce9bc65281ab2b","bgt_status":"bestaand","class":"niet-bgt","plus_type":"haag"},"geometry":{"type":"Polygon","coordinates":[[[172323.962,559078.641],[172301.971,559092.246],[172300.956,559090.623],[172322.888,559076.884],[172323.962,559078.641]]]}},{"type":"Feature","properties":{"relatieveHoogteligging":0,"lokaalID":"G1900.f4eccb9ed82c4c8c97292eafebda7939","bgt_status":"bestaand","class":"niet-bgt","plus_type":"haag"},"geometry":{"type":"Polygon","coordinates":[[[172055.625,559256.239],[172053.762,559257.401],[172051.095,559259.472],[172045.817,559263.556],[172042.187,559266.756],[172040.357,559268.389],[172040.002,559267.975],[172044.44,559264.007],[172046.284,559262.549],[172053.414,559257.095],[172055.349,559255.839],[172055.625,559256.239]]]}},{"type":"Feature","properties":{"relatieveHoogteligging":0,"lokaalID":"G1900.09138d6d973644dab2da648c620c6312","bgt_status":"bestaand","class":"niet-bgt","plus_type":"haag"},"geometry":{"type":"Polygon","coordinates":[[[172044.349,559351.474],[172041.46,559355.69],[172038.896,559359.264],[172037.998,559358.82],[172043.954,559349.92],[172044.973,559350.564],[172044.349,559351.474]]]}},{"type":"Feature","properties":{"relatieveHoogteligging":0,"lokaalID":"G1900.7f78a8e0a88341ee915c635019c3bc31","bgt_status":"bestaand","class":"niet-bgt","plus_type":"haag"},"geometry":{"type":"Polygon","coordinates":[[[172052.132,559340.31],[172049.74,559343.61],[172047.173,559347.355],[172046.554,559348.258],[172045.613,559347.535],[172051.327,559339.62],[172052.132,559340.31]]]}},{"type":"Feature","properties":{"relatieveHoogteligging":0,"lokaalID":"G1900.66416af42ca742028b86bd598cfbd2d0","bgt_status":"bestaand","class":"niet-bgt","plus_type":"haag"},"geometry":{"type":"Polygon","coordinates":[[[172081.532,559309.8],[172077.67,559312.74],[172074.809,559314.844],[172073.949,559314.082],[172081.657,559308.349],[172081.804,559308.534],[172082.331,559309.191],[172081.532,559309.8]]]}},{"type":"Feature","properties":{"relatieveHoogteligging":0,"lokaalID":"G1900.49b0590949c54a069ccc615c64b70cb0","bgt_status":"bestaand","class":"niet-bgt","plus_type":"haag"},"geometry":{"type":"Polygon","coordinates":[[[172092.414,559301.334],[172089.44,559303.78],[172085.53,559306.756],[172084.604,559307.461],[172083.969,559306.764],[172091.788,559300.15],[172092.414,559301.334]]]}},{"type":"Feature","properties":{"relatieveHoogteligging":0,"lokaalID":"G1900.79f0028ed1a645c4be1c65957e5c111c","bgt_status":"bestaand","class":"niet-bgt","plus_type":"haag"},"geometry":{"type":"Polygon","coordinates":[[[172241.367,559467.063],[172246.746,559461.55],[172247.104,559461.899],[172241.725,559467.412],[172241.367,559467.063]]]}},{"type":"Feature","properties":{"relatieveHoogteligging":0,"lokaalID":"G1900.08b0697b51244161b7bc1158b5ed300d","bgt_status":"bestaand","class":"niet-bgt","plus_type":"haag"},"geometry":{"type":"Polygon","coordinates":[[[172233.882,559474.862],[172238.947,559469.663],[172239.305,559470.012],[172234.24,559475.211],[172233.882,559474.862]]]}},{"type":"Feature","properties":{"relatieveHoogteligging":0,"lokaalID":"G1900.461b9772f0cf49faaae4fc2410e8ee65","bgt_status":"bestaand","class":"niet-bgt","plus_type":"haag"},"geometry":{"type":"Polygon","coordinates":[[[172227.252,559482.991],[172232.613,559476.491],[172232.999,559476.809],[172227.638,559483.309],[172227.252,559482.991]]]}},{"type":"Feature","properties":{"relatieveHoogteligging":0,"lokaalID":"G1900.df53088f946048dda76f6ab9bab91ad3","bgt_status":"bestaand","class":"niet-bgt","plus_type":"haag"},"geometry":{"type":"Polygon","coordinates":[[[172218.106,559492.89],[172223.871,559486.505],[172224.242,559486.84],[172218.477,559493.225],[172218.106,559492.89]]]}},{"type":"Feature","properties":{"relatieveHoogteligging":0,"lokaalID":"G1900.68c25cd54984454aba39d7cb322e3d90","bgt_status":"bestaand","class":"niet-bgt","plus_type":"haag"},"geometry":{"type":"Polygon","coordinates":[[[172185.458,559255.113],[172185.787,559266.6],[172184.361,559266.653],[172183.904,559255.113],[172185.458,559255.113]]]}},{"type":"Feature","properties":{"relatieveHoogteligging":0,"lokaalID":"G1900.240c6a2e35d545a594ba1e8d1deaa842","bgt_status":"bestaand","class":"niet-bgt","plus_type":"haag"},"geometry":{"type":"Polygon","coordinates":[[[172183.268,559240.439],[172185.057,559240.453],[172185.521,559254.184],[172183.817,559254.23],[172183.268,559240.439]]]}},{"type":"Feature","properties":{"relatieveHoogteligging":0,"lokaalID":"G1900.74bd449094d54b978b923007cefafbda","bgt_status":"bestaand","class":"niet-bgt","plus_type":"haag"},"geometry":{"type":"Polygon","coordinates":[[[172218.516,559185.869],[172219.587,559187.258],[172213.432,559191.59],[172212.662,559190.866],[172213.432,559190.232],[172216.464,559187.726],[172218.516,559185.869]]]}},{"type":"Feature","properties":{"relatieveHoogteligging":0,"lokaalID":"G1900.4c7fd72d670c4e04bd3edcf64ce51c95","bgt_status":"bestaand","class":"niet-bgt","plus_type":"haag"},"geometry":{"type":"Polygon","coordinates":[[[172314.648,559228.702],[172305.295,559229.514],[172305.211,559228.926],[172314.586,559228.159],[172314.648,559228.702]]]}},{"type":"Feature","properties":{"relatieveHoogteligging":0,"lokaalID":"G1900.9b2faf7f54cd45f5848d1a1f36a2be4b","bgt_status":"bestaand","class":"niet-bgt","plus_type":"haag"},"geometry":{"type":"Polygon","coordinates":[[[172485.595,559380.208],[172489.152,559383.12],[172488.928,559383.375],[172484.421,559383.772],[172484.148,559383.525],[172483.899,559380.567],[172485.595,559380.208]]]}},{"type":"Feature","properties":{"relatieveHoogteligging":0,"lokaalID":"G1900.4f3343ae5979412ca9a375475739da75","bgt_status":"bestaand","class":"niet-bgt","plus_type":"haag"},"geometry":{"type":"Polygon","coordinates":[[[172456.774,559478.659],[172458.813,559497.513],[172458.315,559497.567],[172456.277,559478.713],[172456.774,559478.659]]]}},{"type":"Feature","properties":{"relatieveHoogteligging":0,"lokaalID":"G1900.c110de7e54e64bb1af8da7fb3979677a","bgt_status":"bestaand","class":"niet-bgt","plus_type":"haag"},"geometry":{"type":"Polygon","coordinates":[[[172847.049,559050.293],[172848.438,559055.33],[172852.51,559105.243],[172853.789,559121.449],[172853.793,559121.478],[172853.793,559121.489],[172852.543,559121.662],[172851.329,559105.959],[172847.178,559055.702],[172845.826,559050.608],[172847.049,559050.293]]]}},{"type":"Feature","properties":{"relatieveHoogteligging":0,"lokaalID":"G1900.e144f1616e2e4ac4a1ee5c62be720e55","bgt_status":"bestaand","class":"niet-bgt","plus_type":"haag"},"geometry":{"type":"Polygon","coordinates":[[[172853.513,559143.639],[172853.804,559147.278],[172848.81,559147.663],[172848.748,559146.897],[172851.242,559146.697],[172853.094,559146.549],[172852.859,559143.679],[172853.513,559143.639]]]}}]}