{"type":"FeatureCollection","name":"bgt_tunneldeel","crs":{"type":"name","properties":{"name":"urn:ogc:def:crs:EPSG::28992"}},"features":[{"type":"Feature","properties":{"relatieveHoogteligging":-1,"lokaalID":"G1900.63d347c4d1dc4eee803a9d4f898c5358","bgt_status":"bestaand"},"geometry":{"type":"Polygon","coordinates":[[[172955.213,559528.121],[172953.342,559528.243],[172950.736,559493.364],[172952.658,559493.199],[172955.213,559528.121]]]}},{"type":"Feature","properties":{"relatieveHoogteligging":-1,"lokaalID":"G1900.a7db1eacb16d4fc2bba2891060776f44","bgt_status":"bestaand"},"geometry":{"type":"Polygon","coordinates":[[[172955.213,559528.121],[172952.658,559493.199],[172956.279,559492.889],[172958.94,559527.877],[172955.213,559528.121]]]}},{"type":"Feature","properties":{"relatieveHoogteligging":-1,"lokaalID":"L0002.b9895b1e679045948e99e506e275c592","bgt_status":"bestaand"},"geometry":{"type":"Polygon","coordinates":[[[172960.26,559546.426],[172956.497,559546.65],[172956.035,559539.346],[172959.842,559539.118],[172960.26,559546.426]]]}},{"type":"Feature","properties":{"relatieveHoogteligging":-1,"lokaalID":"L0002.c14a331f8ff549c3831fc59375eebe2a","bgt_status":"bestaand"},"geometry":{"type":"Polygon","coordinates":[[[172956.497,559546.65],[172954.802,559546.751],[172954.253,559539.453],[172956.035,559539.346],[172956.497,559546.65]]]}}]}