{"type":"FeatureCollection","name":"bgt_overbruggingsdeel","crs":{"type":"name","properties":{"name":"urn:ogc:def:crs:EPSG::28992"}},"features":[{"type":"Feature","properties":{"relatieveHoogteligging":0,"lokaalID":"L0004.94d35ce854434301b40fd863dc61a90b","bgt_status":"bestaand","class":"landhoofd","overbruggingIsBeweegbaar":"false","hoortBijTypeOverbrugging":"viaduct"},"geometry":{"type":"Polygon","coordinates":[[[171906.962,559965.658],[171906.642,559966.042],[171906.255,559966.507],[171905.881,559966.956],[171905.785,559967.072],[171903.608,559965.258],[171899.725,559962.023],[171900.179,559961.787],[171906.837,559958.199],[171908.811,559959.844],[171910.579,559961.317],[171910.483,559961.433],[171909.683,559962.393],[171907.122,559965.466],[171906.962,559965.658]]]}},{"type":"Feature","properties":{"relatieveHoogteligging":1,"lokaalID":"G1900.c6c25ec49f5e4701890ce187567d4e29","bgt_status":"bestaand","hoortBijTypeOverbrugging":"brug"},"geometry":{"type":"Polygon","coordinates":[[[170458.339,558103.858],[170462.353,558104.49],[170462.199,558105.583],[170461.038,558112.791],[170460.887,558113.81],[170460.427,558116.796],[170456.349,558116.158],[170456.863,558113.404],[170457.123,558111.925],[170458.111,558105.84],[170458.339,558103.858]]]}},{"type":"Feature","properties":{"relatieveHoogteligging":1,"lokaalID":"G1900.b769c8a5250d434fa730913a6637942f","bgt_status":"bestaand","hoortBijTypeOverbrugging":"brug"},"geometry":{"type":"Polygon","coordinates":[[[170450.484,558103.517],[170450.54,558102.659],[170454.569,558103.264],[170454.265,558105.279],[170453.328,558111.303],[170453.105,558112.758],[170452.907,558113.963],[170448.989,558113.33],[170449.188,558112.114],[170449.372,558110.76],[170450.306,558104.767],[170450.484,558103.517]]]}},{"type":"Feature","properties":{"relatieveHoogteligging":1,"lokaalID":"G1900.e65e1d1c340a4fffbb53f3d8fcd5ff6d","bgt_status":"bestaand","hoortBijTypeOverbrugging":"brug"},"geometry":{"type":"Polygon","coordinates":[[[170436.041,558108.708],[170437.017,558102.398],[170437.184,558101.345],[170437.308,558100.613],[170437.324,558100.39],[170441.341,558101.186],[170441.088,558102.241],[170440.917,558103.405],[170439.978,558109.401],[170439.778,558110.716],[170439.616,558111.705],[170435.614,558111.083],[170435.957,558109.265],[170436.041,558108.708]]]}},{"type":"Feature","properties":{"relatieveHoogteligging":1,"lokaalID":"G1900.61ccda456b9647f39fff8b692c48443f","bgt_status":"bestaand","hoortBijTypeOverbrugging":"brug"},"geometry":{"type":"Polygon","coordinates":[[[170408.19,558232.34],[170408.722,558232.452],[170408.603,558233.039],[170410.443,558233.401],[170410.556,558232.836],[170411.06,558232.942],[170408.41,558245.822],[170407.986,558245.733],[170408.111,558245.106],[170406.238,558244.725],[170406.113,558245.34],[170405.491,558245.21],[170408.19,558232.34]]]}},{"type":"Feature","properties":{"relatieveHoogteligging":1,"lokaalID":"G1900.e0921e07e46841c9989419377fd9a606","bgt_status":"bestaand","hoortBijTypeOverbrugging":"brug"},"geometry":{"type":"Polygon","coordinates":[[[170745.014,558219.394],[170752.88,558213.49],[170753.432,558214.209],[170757.069,558218.945],[170757.61,558219.65],[170749.22,558226.12],[170748.637,558225.377],[170744.919,558220.638],[170744.34,558219.9],[170745.014,558219.394]]]}},{"type":"Feature","properties":{"relatieveHoogteligging":1,"lokaalID":"G1900.0c49a6d8c5904b419a12399baf9d8621","bgt_status":"bestaand","class":"dek","overbruggingIsBeweegbaar":"false","hoortBijTypeOverbrugging":"brug"},"geometry":{"type":"Polygon","coordinates":[[[170753.105,558187.879],[170752.025,558183.802],[170756.724,558182.46],[170757.911,558186.548],[170753.105,558187.879]]]}},{"type":"Feature","properties":{"relatieveHoogteligging":1,"lokaalID":"G1900.ac85ed82da4d47f18fb69abc648fea5b","bgt_status":"bestaand","class":"dek","overbruggingIsBeweegbaar":"false","hoortBijTypeOverbrugging":"brug"},"geometry":{"type":"Polygon","coordinates":[[[170795.282,558303.002],[170792.503,558299.031],[170797.176,558297.976],[170799.824,558301.886],[170795.282,558303.002]]]}},{"type":"Feature","properties":{"relatieveHoogteligging":1,"lokaalID":"G1900.542bd660519b447588a228e51ace400a","bgt_status":"bestaand","hoortBijTypeOverbrugging":"brug"},"geometry":{"type":"Polygon","coordinates":[[[170861.2,558097.98],[170862.23,558097.88],[170864.334,558098.364],[170871.62,558100.04],[170876.989,558101.028],[170877.16,558101.06],[170877.425,558101.081],[170881.852,558101.426],[170882.16,558101.45],[170882.85,558101.56],[170882.12,558104.31],[170881.87,558104.18],[170881.473,558103.964],[170877.24,558102.79],[170877.039,558102.748],[170871.28,558101.54],[170864.032,558100.73],[170861.88,558100.49],[170860.852,558100.322],[170861.2,558097.98]]]}},{"type":"Feature","properties":{"relatieveHoogteligging":1,"lokaalID":"G1900.c1b64ddaf3f2483c812fc2ffeb4e0ae1","bgt_status":"bestaand","hoortBijTypeOverbrugging":"brug"},"geometry":{"type":"Polygon","coordinates":[[[170936.956,558209.923],[170937.384,558208.405],[170948.924,558212.11],[170948.089,558213.623],[170947.484,558215.464],[170946.672,558217.938],[170946.003,558219.693],[170935.023,558215.76],[170935.527,558214.223],[170936.218,558212.144],[170936.956,558209.923]]]}},{"type":"Feature","properties":{"relatieveHoogteligging":1,"lokaalID":"G1900.64f216d7d68a4e968412414057f2c307","bgt_status":"bestaand","hoortBijTypeOverbrugging":"brug"},"geometry":{"type":"Polygon","coordinates":[[[170999.993,558003.646],[171000.04,558003.547],[171001.639,558004.315],[171010.422,558008.532],[171013.137,558009.836],[171011.846,558012.617],[171009.41,558011.469],[171000.317,558007.182],[171000,558007.033],[170998.692,558006.416],[170999.993,558003.646]]]}},{"type":"Feature","properties":{"relatieveHoogteligging":1,"lokaalID":"G1900.81ca4a4690394f0db12a33372cdfef8c","bgt_status":"bestaand","hoortBijTypeOverbrugging":"brug"},"geometry":{"type":"Polygon","coordinates":[[[170999.66,558002.744],[171003.204,558004.438],[171003.067,558004.725],[170999.511,558003.056],[170999.66,558002.744]]]}},{"type":"Feature","properties":{"relatieveHoogteligging":1,"lokaalID":"G1900.2b9f9114f34f48efa7038a851cb9e873","bgt_status":"bestaand","hoortBijTypeOverbrugging":"brug"},"geometry":{"type":"Polygon","coordinates":[[[170997.946,558006.401],[171001.501,558008.042],[171001.334,558008.403],[170997.787,558006.745],[170997.946,558006.401]]]}},{"type":"Feature","properties":{"relatieveHoogteligging":1,"lokaalID":"G1900.8f38731be69542f495d9afe40073142c","bgt_status":"bestaand","class":"dek","overbruggingIsBeweegbaar":"false","hoortBijTypeOverbrugging":"brug"},"geometry":{"type":"Polygon","coordinates":[[[171108.849,558021.184],[171109.431,558019.871],[171114.288,558022.025],[171113.705,558023.338],[171108.849,558021.184]]]}},{"type":"Feature","properties":{"relatieveHoogteligging":1,"lokaalID":"G1900.d284d168967b4e0cb653d9794fa0d1ad","bgt_status":"bestaand","hoortBijTypeOverbrugging":"brug"},"geometry":{"type":"Polygon","coordinates":[[[171218.003,558398.586],[171218.727,558399.552],[171224.438,558406.391],[171226.4,558408.74],[171224.7,558410.1],[171223.928,558409.139],[171216.361,558399.911],[171218.003,558398.586]]]}},{"type":"Feature","properties":{"relatieveHoogteligging":1,"lokaalID":"G1900.c4a3d11d1a5e4e308edd2f939c219c7e","bgt_status":"bestaand","hoortBijTypeOverbrugging":"brug"},"geometry":{"type":"Polygon","coordinates":[[[171122.23,558456.59],[171123.8,558454.179],[171123.89,558454.04],[171124.561,558454.67],[171125.59,558455.635],[171130.713,558460.442],[171131.101,558460.806],[171131.201,558460.9],[171132.31,558461.94],[171130.51,558464.45],[171129.547,558463.536],[171128.857,558462.881],[171123.868,558458.145],[171122.23,558456.59]]]}},{"type":"Feature","properties":{"relatieveHoogteligging":1,"lokaalID":"G1900.e6d6b88dd9bd47458a51f1ea48eb2540","bgt_status":"bestaand","hoortBijTypeOverbrugging":"brug"},"geometry":{"type":"Polygon","coordinates":[[[171113.972,559877.157],[171116.544,559879.428],[171117.058,559879.657],[171113.795,559883.355],[171110.757,559880.799],[171113.972,559877.157]]]}},{"type":"Feature","properties":{"relatieveHoogteligging":1,"lokaalID":"L0004.02b32f0e7c8f4054828974c5a1186988","bgt_status":"bestaand","class":"dek","overbruggingIsBeweegbaar":"false","hoortBijTypeOverbrugging":"brug"},"geometry":{"type":"Polygon","coordinates":[[[171440.563,559577.447],[171436.62,559574.138],[171438.111,559572.386],[171442.023,559575.67],[171440.563,559577.447]]]}},{"type":"Feature","properties":{"relatieveHoogteligging":1,"lokaalID":"L0004.c4fb936b5e664afa9bd75fb458b70c62","bgt_status":"bestaand","class":"dek","overbruggingIsBeweegbaar":"false","hoortBijTypeOverbrugging":"brug"},"geometry":{"type":"Polygon","coordinates":[[[171435.651,559573.965],[171435.862,559573.711],[171436.031,559573.852],[171436.35,559574.117],[171440.649,559577.692],[171440.818,559577.832],[171440.609,559578.087],[171440.44,559577.947],[171436.136,559574.368],[171435.82,559574.106],[171435.651,559573.965]]]}},{"type":"Feature","properties":{"relatieveHoogteligging":0,"lokaalID":"L0004.cea0f1e8dd9c49fc9e3188af385be950","bgt_status":"bestaand","class":"landhoofd","overbruggingIsBeweegbaar":"false","hoortBijTypeOverbrugging":"brug"},"geometry":{"type":"Polygon","coordinates":[[[171442.094,559567.961],[171440.672,559570.224],[171436.774,559574.806],[171435.108,559576.765],[171433.258,559578.572],[171432.772,559578.159],[171432.225,559577.695],[171432.517,559577.352],[171432.953,559577.723],[171432.992,559577.755],[171434.544,559576.239],[171435.358,559575.282],[171436.136,559574.368],[171436.35,559574.117],[171437.943,559572.244],[171439.497,559570.417],[171440.05,559569.767],[171440.186,559569.55],[171441.259,559567.843],[171440.777,559567.433],[171441.068,559567.09],[171441.608,559567.549],[171442.094,559567.961]]]}},{"type":"Feature","properties":{"relatieveHoogteligging":1,"lokaalID":"L0004.db819a5858555a3fe0530b29a8c0ec8b","bgt_status":"bestaand","class":"dek","hoortBijTypeOverbrugging":"brug"},"geometry":{"type":"Polygon","coordinates":[[[171439.497,559570.417],[171439.665,559570.559],[171439.374,559570.901],[171443.261,559574.163],[171443.549,559573.82],[171443.719,559573.96],[171442.195,559575.812],[171442.023,559575.67],[171442.118,559575.554],[171438.208,559572.272],[171438.111,559572.386],[171437.943,559572.244],[171439.497,559570.417]]]}},{"type":"Feature","properties":{"relatieveHoogteligging":0,"lokaalID":"L0004.a3b17d9fc4aa4d57a018e816a1cf222a","bgt_status":"bestaand","class":"landhoofd","overbruggingIsBeweegbaar":"false","hoortBijTypeOverbrugging":"brug"},"geometry":{"type":"Polygon","coordinates":[[[171446.666,559571.841],[171446.375,559572.184],[171445.893,559571.775],[171444.283,559573.274],[171443.719,559573.96],[171442.195,559575.812],[171440.649,559577.692],[171440.44,559577.947],[171440.206,559578.231],[171439.667,559578.886],[171438.871,559579.854],[171437.639,559581.7],[171437.661,559581.719],[171438.114,559582.103],[171437.823,559582.446],[171437.223,559581.937],[171436.941,559581.697],[171436.797,559581.575],[171438.252,559579.395],[171439.863,559577.435],[171443.721,559572.745],[171445.634,559570.965],[171446.035,559571.305],[171446.666,559571.841]]]}},{"type":"Feature","properties":{"relatieveHoogteligging":0,"lokaalID":"L0002.e335302041f94be082d105e94eae37df","bgt_status":"bestaand","class":"pijler"},"geometry":{"type":"Polygon","coordinates":[[[171994.181,559897.278],[171993.744,559897.572],[171993.199,559897.945],[171992.627,559897.382],[171993.333,559896.888],[171993.715,559896.631],[171994.181,559897.278]]]}},{"type":"Feature","properties":{"relatieveHoogteligging":0,"lokaalID":"L0002.b3ae61b2243a4faeaa5b846dbdc34335","bgt_status":"bestaand","class":"pijler"},"geometry":{"type":"Polygon","coordinates":[[[171996.751,559883.988],[171992.696,559886.915],[171988.596,559889.778],[171987.395,559890.609],[171986.43,559891.277],[171985.426,559890.288],[171985.756,559890.06],[171986.568,559889.501],[171989.874,559887.223],[171994.038,559884.455],[171998.219,559881.711],[172002.394,559878.958],[172006.577,559876.217],[172006.865,559876.018],[172007.162,559876.535],[172004.87,559878.144],[172000.818,559881.075],[171996.751,559883.988]]]}},{"type":"Feature","properties":{"relatieveHoogteligging":0,"lokaalID":"L0002.52756b38f7324e5e987eeae1868c3564","bgt_status":"bestaand"},"geometry":{"type":"Polygon","coordinates":[[[171903.318,559929.846],[171903.809,559929.24],[171905.629,559930.778],[171906.677,559930.175],[171907.506,559929.698],[171908.627,559929.054],[171909.114,559928.773],[171909.591,559928.499],[171910.627,559927.903],[171911.258,559927.54],[171912.13,559927.038],[171912.979,559926.55],[171913.074,559926.495],[171913.152,559926.45],[171911.269,559924.855],[171911.759,559924.28],[171912.907,559925.252],[171913.891,559926.084],[171914.096,559926.257],[171912.961,559926.93],[171912.883,559926.976],[171908.62,559929.451],[171908.575,559929.478],[171905.185,559931.423],[171904.966,559931.238],[171903.318,559929.846]]]}},{"type":"Feature","properties":{"relatieveHoogteligging":1,"lokaalID":"G1900.a79a5c51385f4a5db1a53e64c8bcd569","bgt_status":"bestaand","class":"dek","overbruggingIsBeweegbaar":"false","hoortBijTypeOverbrugging":"viaduct"},"geometry":{"type":"Polygon","coordinates":[[[171904.883,559930.122],[171905.629,559930.778],[171906.677,559930.175],[171907.506,559929.698],[171908.627,559929.054],[171909.591,559928.499],[171910.627,559927.903],[171911.258,559927.54],[171912.13,559927.038],[171913.074,559926.495],[171912.304,559925.854],[171912.072,559926.074],[171911.64,559925.746],[171911.348,559925.485],[171911.044,559925.213],[171911.247,559924.873],[171911.261,559924.857],[171911.759,559924.28],[171912.907,559925.252],[171913.891,559926.084],[171930.203,559939.949],[171933.333,559942.563],[171933.597,559942.753],[171935.247,559944.148],[171934.833,559944.699],[171934.577,559945.07],[171933.59,559944.213],[171933.639,559944.035],[171932.775,559943.24],[171925.478,559947.541],[171926.31,559948.245],[171926.571,559947.894],[171927.776,559948.78],[171927.555,559949.116],[171927.445,559949.203],[171926.933,559949.781],[171924.772,559947.957],[171924.551,559947.739],[171921.447,559945.086],[171904.966,559931.238],[171903.318,559929.846],[171903.809,559929.24],[171904.049,559928.924],[171905.147,559929.763],[171904.883,559930.122]]]}},{"type":"Feature","properties":{"relatieveHoogteligging":-1,"lokaalID":"L0002.e080469fb48d496f9bdb6992f0c3de63","bgt_status":"bestaand"},"geometry":{"type":"Polygon","coordinates":[[[171979.68,559912.301],[171973.034,559916.836],[171968.08,559920.198],[171964.772,559922.45],[171956.313,559928.004],[171953.955,559929.536],[171953.919,559929.5],[171950.92,559926.537],[171950.358,559925.982],[171936.575,559912.366],[171938.121,559911.365],[171942.358,559908.628],[171944.502,559907.218],[171948.487,559904.578],[171952.632,559901.813],[171956.436,559899.259],[171961.147,559896.069],[171964.46,559893.817],[171968.88,559890.798],[171973.398,559887.708],[171978.894,559883.924],[171992.584,559897.402],[171996.233,559901.004],[171987.968,559906.678],[171979.68,559912.301]]]}},{"type":"Feature","properties":{"relatieveHoogteligging":1,"lokaalID":"L0004.5e9eefaa86664f13a703c5de4bae5d7c","bgt_status":"bestaand","class":"dek","overbruggingIsBeweegbaar":"false","hoortBijTypeOverbrugging":"viaduct"},"geometry":{"type":"Polygon","coordinates":[[[171906.588,559957.992],[171906.837,559958.199],[171908.811,559959.844],[171910.579,559961.317],[171910.483,559961.433],[171909.683,559962.393],[171907.122,559965.466],[171908.275,559966.426],[171908.115,559966.618],[171906.962,559965.658],[171906.897,559965.736],[171906.642,559966.042],[171906.255,559966.507],[171905.881,559966.956],[171905.785,559967.072],[171903.608,559965.258],[171899.725,559962.023],[171899.475,559961.815],[171879.51,559945.179],[171879.179,559944.903],[171877.73,559943.696],[171875.833,559942.115],[171875.929,559942],[171876.342,559941.504],[171876.691,559941.086],[171876.988,559940.73],[171877.011,559940.702],[171875.897,559939.774],[171876.057,559939.582],[171877.171,559940.51],[171879.732,559937.437],[171880.186,559936.892],[171880.532,559936.476],[171880.628,559936.361],[171882.698,559938.086],[171886.447,559941.21],[171886.739,559941.453],[171906.588,559957.992]]]}},{"type":"Feature","properties":{"relatieveHoogteligging":0,"lokaalID":"L0002.1461c70b51974a9395152f77529007d4","bgt_status":"bestaand"},"geometry":{"type":"Polygon","coordinates":[[[171861.452,559953.269],[171861.2,559952.79],[171861.682,559952.547],[171861.855,559952.914],[171861.885,559952.9],[171861.955,559952.866],[171866.695,559950.617],[171866.779,559950.577],[171866.854,559950.542],[171866.677,559950.168],[171867.174,559949.932],[171867.421,559950.432],[171867.556,559950.706],[171867.359,559950.802],[171867.482,559951.063],[171867.5,559951.102],[171864.351,559952.599],[171864.294,559952.626],[171861.995,559953.702],[171861.988,559953.687],[171861.857,559953.412],[171861.588,559953.528],[171861.452,559953.269]]]}},{"type":"Feature","properties":{"relatieveHoogteligging":1,"lokaalID":"G1900.21b786518dfb4c52a3e3a023d9bbe431","bgt_status":"bestaand","class":"dek","overbruggingIsBeweegbaar":"false","hoortBijTypeOverbrugging":"viaduct"},"geometry":{"type":"Polygon","coordinates":[[[171864.463,559946.569],[171865.511,559948.072],[171866.352,559949.746],[171866.677,559950.168],[171877.929,559973.858],[171878.124,559974.373],[171879.314,559976.982],[171879.088,559977.093],[171878.688,559977.289],[171877,559978.113],[171874.926,559979.124],[171874.394,559979.387],[171872.247,559975.251],[171871.723,559974.128],[171870.58,559971.679],[171861.865,559952.672],[171859.961,559949.001],[171864.463,559946.569]]]}},{"type":"Feature","properties":{"relatieveHoogteligging":1,"lokaalID":"G1900.b9f4a4244bd34514a3b4b4c8600a1065","bgt_status":"bestaand","class":"dek","overbruggingIsBeweegbaar":"false","hoortBijTypeOverbrugging":"brug"},"geometry":{"type":"Polygon","coordinates":[[[171924.468,559134.159],[171924.468,559130.182],[171925.826,559130.182],[171925.826,559134.159],[171924.468,559134.159]]]}},{"type":"Feature","properties":{"relatieveHoogteligging":1,"lokaalID":"G1900.f92bfe194b92483f818879881e282257","bgt_status":"bestaand","class":"dek","overbruggingIsBeweegbaar":"false","hoortBijTypeOverbrugging":"brug"},"geometry":{"type":"Polygon","coordinates":[[[171967.463,559166.304],[171968.162,559165.342],[171971.375,559167.738],[171972.129,559168.383],[171971.384,559169.265],[171967.463,559166.304]]]}},{"type":"Feature","properties":{"relatieveHoogteligging":0,"lokaalID":"L0004.48b15d3470b64a09977f8cbc96abb314","bgt_status":"bestaand","class":"landhoofd","overbruggingIsBeweegbaar":"false","hoortBijTypeOverbrugging":"viaduct"},"geometry":{"type":"Polygon","coordinates":[[[171877.171,559940.51],[171879.732,559937.437],[171880.186,559936.892],[171880.532,559936.476],[171880.628,559936.361],[171882.698,559938.086],[171886.447,559941.21],[171882.05,559943.426],[171879.179,559944.903],[171877.73,559943.696],[171875.833,559942.115],[171875.929,559942],[171876.342,559941.504],[171876.691,559941.086],[171876.988,559940.73],[171877.011,559940.702],[171877.171,559940.51]]]}},{"type":"Feature","properties":{"relatieveHoogteligging":1,"lokaalID":"G1900.16a257686ad14f089a2b0f377e31c54c","bgt_status":"bestaand","hoortBijTypeOverbrugging":"brug"},"geometry":{"type":"Polygon","coordinates":[[[173801.442,559976.9],[173804.634,559979.042],[173803.544,559980.675],[173797.921,559989.097],[173797.531,559989.681],[173796.673,559990.966],[173793.498,559988.733],[173794.719,559986.914],[173800.332,559978.554],[173801.442,559976.9]]]}},{"type":"Feature","properties":{"relatieveHoogteligging":1,"lokaalID":"G1900.83330dcbc05f41619eb777406413d3f7","bgt_status":"bestaand","class":"dek","overbruggingIsBeweegbaar":"false","hoortBijTypeOverbrugging":"brug"},"geometry":{"type":"Polygon","coordinates":[[[173814.555,559529.231],[173824.161,559510.954],[173826.813,559512.377],[173817.392,559530.753],[173814.555,559529.231]]]}},{"type":"Feature","properties":{"relatieveHoogteligging":1,"lokaalID":"G1900.cb8f68b906534c8e836f3252e9214194","bgt_status":"bestaand","hoortBijTypeOverbrugging":"brug"},"geometry":{"type":"Polygon","coordinates":[[[173711.093,558856.883],[173711.632,558856.893],[173711.664,558858.87],[173711.283,558858.892],[173703.943,558859.056],[173703.555,558859.065],[173703.553,558857.098],[173704.356,558857.063],[173711.093,558856.883]]]}},{"type":"Feature","properties":{"relatieveHoogteligging":1,"lokaalID":"G1900.cb5c6099d7c64f9586a676f3b3a844e4","bgt_status":"bestaand","hoortBijTypeOverbrugging":"brug"},"geometry":{"type":"Polygon","coordinates":[[[173654.529,558858.376],[173654.531,558860.263],[173654.116,558860.365],[173646.921,558860.561],[173646.489,558860.572],[173646.414,558858.618],[173646.774,558858.596],[173654.083,558858.383],[173654.529,558858.376]]]}},{"type":"Feature","properties":{"relatieveHoogteligging":1,"lokaalID":"G1900.6ed2b1debf194cef9dd57305ae44b628","bgt_status":"bestaand","hoortBijTypeOverbrugging":"brug"},"geometry":{"type":"Polygon","coordinates":[[[173512.799,558751.639],[173513.403,558754.667],[173512.656,558754.843],[173511.908,558755.013],[173511.159,558755.179],[173504.851,558756.373],[173498.488,558757.22],[173492.087,558757.716],[173491.233,558757.756],[173490.378,558757.789],[173489.523,558757.816],[173489.291,558754.764],[173490.101,558754.737],[173490.91,558754.705],[173491.719,558754.667],[173498.098,558754.169],[173504.439,558753.318],[173510.724,558752.116],[173511.417,558751.961],[173512.108,558751.802],[173512.799,558751.639]]]}},{"type":"Feature","properties":{"relatieveHoogteligging":0,"lokaalID":"L0002.aaa3b0c921ff4bcd8ef7bfb874a0e6d6","bgt_status":"bestaand"},"geometry":{"type":"Polygon","coordinates":[[[173525.433,559520.739],[173525.884,559520.027],[173526.789,559520.674],[173532.468,559524.727],[173532.65,559524.857],[173532.448,559525.175],[173532.42,559525.172],[173525.433,559520.74],[173525.428,559520.736],[173525.433,559520.739]]]}},{"type":"Feature","properties":{"relatieveHoogteligging":1,"lokaalID":"G1900.2bf36245a2dd46b296997bde085d3209","bgt_status":"bestaand","hoortBijTypeOverbrugging":"brug"},"geometry":{"type":"Polygon","coordinates":[[[173525.433,559520.74],[173532.42,559525.172],[173524.452,559537.699],[173517.508,559533.299],[173525.433,559520.74]]]}},{"type":"Feature","properties":{"relatieveHoogteligging":1,"lokaalID":"G1900.f2b2a8735f124ccdbdfb033dc867ce80","bgt_status":"bestaand","hoortBijTypeOverbrugging":"brug"},"geometry":{"type":"Polygon","coordinates":[[[173470.732,559509.676],[173470.665,559508.222],[173468.39,559467.834],[173468.284,559463.753],[173469.384,559463.749],[173469.68,559467.799],[173481.598,559467.311],[173481.476,559463.073],[173482.607,559463.048],[173483.021,559467.255],[173483.421,559475.822],[173484.968,559508.923],[173470.732,559509.676]]]}},{"type":"Feature","properties":{"relatieveHoogteligging":1,"lokaalID":"G1900.2d841016231b48d7bbdced5f7cdbf4a9","bgt_status":"bestaand","hoortBijTypeOverbrugging":"brug"},"geometry":{"type":"Polygon","coordinates":[[[172547.222,559213.362],[172547.961,559213.294],[172551.969,559212.923],[172553.957,559212.74],[172554.352,559212.703],[172554.116,559213.119],[172554,559213.541],[172553.963,559214.583],[172554.196,559217.619],[172554.473,559221.227],[172554.711,559221.843],[172555.284,559222.869],[172555.023,559222.888],[172547.84,559223.416],[172547.289,559223.457],[172547.677,559222.528],[172547.859,559221.822],[172547.483,559216.649],[172547.439,559215.164],[172547.301,559214.319],[172547.133,559213.78],[172546.92,559213.388],[172547.033,559213.379],[172547.222,559213.362]]]}},{"type":"Feature","properties":{"relatieveHoogteligging":1,"lokaalID":"G1900.2e3c8e4acf9c4b268c7add4a24399ae9","bgt_status":"bestaand","class":"dek","overbruggingIsBeweegbaar":"false","hoortBijTypeOverbrugging":"brug"},"geometry":{"type":"Polygon","coordinates":[[[172964.911,559629.105],[172966.015,559616.981],[172968.007,559617.153],[172971.347,559617.441],[172969.945,559629.519],[172966.973,559629.274],[172964.911,559629.105]]]}},{"type":"Feature","properties":{"relatieveHoogteligging":1,"lokaalID":"G1900.8b3a0082bd40444582b4c416957540b4","bgt_status":"bestaand","hoortBijTypeOverbrugging":"brug"},"geometry":{"type":"Polygon","coordinates":[[[173002.598,559633.352],[172994.189,559634.118],[172991.043,559634.404],[172982.433,559635.188],[172980.609,559635.354],[172982.074,559616.408],[172984.846,559616.14],[172993.694,559615.285],[172996.78,559614.987],[173004.568,559614.235],[173006.143,559614.083],[173004.684,559633.162],[173002.598,559633.352]]]}},{"type":"Feature","properties":{"relatieveHoogteligging":0,"lokaalID":"L0002.ed2242c0bae04460a84b6e73cbc4e6c1","bgt_status":"bestaand"},"geometry":{"type":"Polygon","coordinates":[[[173023.197,559497.782],[173013.603,559498.26],[173012.124,559498.331],[173012.093,559497.745],[173013.548,559497.675],[173015.078,559497.601],[173021.287,559497.302],[173023.281,559497.23],[173023.197,559497.782]]]}},{"type":"Feature","properties":{"relatieveHoogteligging":1,"lokaalID":"L0002.0fec914b25f146c689c2f7931467cf52","bgt_status":"bestaand"},"geometry":{"type":"Polygon","coordinates":[[[173024.076,559521.104],[173014.416,559521.568],[173013.243,559497.74],[173022.914,559497.274],[173024.076,559521.104]]]}},{"type":"Feature","properties":{"relatieveHoogteligging":0,"lokaalID":"L0002.711e24dd73b7436eb5e5dd23b3771ed5","bgt_status":"bestaand"},"geometry":{"type":"Polygon","coordinates":[[[173014.47,559521.617],[173013.673,559521.656],[173013.658,559521.104],[173015.485,559521.019],[173022.976,559520.643],[173024.319,559520.555],[173024.405,559521.127],[173022.544,559521.228],[173016.258,559521.53],[173014.47,559521.617]]]}},{"type":"Feature","properties":{"relatieveHoogteligging":0,"lokaalID":"L0002.5d05b070d26049bc9e16f85d47194b8e","bgt_status":"bestaand"},"geometry":{"type":"Polygon","coordinates":[[[172971.65,559523.705],[172969.837,559523.822],[172969.864,559523.187],[172973.034,559523.054],[172980.627,559522.692],[172980.598,559523.292],[172979.763,559523.326],[172978.12,559523.393],[172971.65,559523.705]]]}},{"type":"Feature","properties":{"relatieveHoogteligging":1,"lokaalID":"L0002.7b643d077d494c2fb7c5969531ce3d4e","bgt_status":"bestaand"},"geometry":{"type":"Polygon","coordinates":[[[172978.901,559499.393],[172979.247,559507.401],[172979.385,559510.397],[172979.601,559515.393],[172979.812,559519.888],[172979.947,559523.255],[172970.299,559523.717],[172969.154,559499.925],[172978.901,559499.393]]]}},{"type":"Feature","properties":{"relatieveHoogteligging":0,"lokaalID":"L0002.b5d0eacac8d446d0ae93182c1332ba87","bgt_status":"bestaand"},"geometry":{"type":"Polygon","coordinates":[[[172980.014,559499.876],[172971.151,559500.295],[172968.79,559500.431],[172968.739,559499.909],[172970.794,559499.786],[172976.966,559499.449],[172978.463,559499.368],[172978.572,559499.361],[172979.945,559499.291],[172980.014,559499.876]]]}},{"type":"Feature","properties":{"relatieveHoogteligging":0,"lokaalID":"L0002.0da43f77cc214d9ba25596a865ec9f32","bgt_status":"bestaand"},"geometry":{"type":"Polygon","coordinates":[[[172961.877,559538.028],[172961.224,559538.094],[172961.198,559537.741],[172960.173,559523.844],[172960.169,559523.794],[172960.821,559523.771],[172960.952,559525.536],[172961.753,559536.35],[172961.877,559538.028]]]}},{"type":"Feature","properties":{"relatieveHoogteligging":0,"lokaalID":"L0002.cee4c771d72e4fe7a66d7b8ba242c900","bgt_status":"bestaand"},"geometry":{"type":"Polygon","coordinates":[[[172948.453,559501.239],[172947.782,559501.276],[172947.657,559499.587],[172946.923,559489.726],[172946.83,559488.479],[172946.775,559487.809],[172947.435,559487.633],[172947.463,559487.941],[172947.488,559488.273],[172948.453,559501.239]]]}},{"type":"Feature","properties":{"relatieveHoogteligging":0,"lokaalID":"L0002.07338982104140459e3e773e2262032f","bgt_status":"bestaand"},"geometry":{"type":"Polygon","coordinates":[[[172952.362,559536.764],[172951.699,559536.784],[172951.568,559534.979],[172950.907,559525.839],[172950.791,559524.24],[172951.45,559524.223],[172951.453,559524.267],[172952.346,559536.492],[172952.362,559536.764]]]}},{"type":"Feature","properties":{"relatieveHoogteligging":1,"lokaalID":"L0002.27fe7b8ddebc446b81c76cc70cfc0c67","bgt_status":"bestaand"},"geometry":{"type":"Polygon","coordinates":[[[172961.808,559537.777],[172951.718,559536.353],[172950.849,559524.346],[172960.778,559523.865],[172961.808,559537.777]]]}},{"type":"Feature","properties":{"relatieveHoogteligging":1,"lokaalID":"L0002.723a05f68da74eab8813336c8a7a2f60","bgt_status":"bestaand"},"geometry":{"type":"Polygon","coordinates":[[[172950.928,559486.776],[172952.134,559486.3],[172953.278,559485.799],[172954.492,559485.238],[172955.71,559484.607],[172956.898,559483.953],[172957.796,559483.464],[172957.826,559483.801],[172958.909,559500.676],[172947.83,559501.222],[172946.88,559488.475],[172946.851,559488.127],[172948.444,559487.642],[172949.723,559487.221],[172950.928,559486.776]]]}},{"type":"Feature","properties":{"relatieveHoogteligging":0,"lokaalID":"L0002.784a65b7048940bc9101358ed475ac5d","bgt_status":"bestaand"},"geometry":{"type":"Polygon","coordinates":[[[172957.194,559483.566],[172957.185,559483.473],[172957.831,559483.301],[172957.876,559483.797],[172957.965,559485.178],[172958.345,559491.104],[172958.555,559494.385],[172958.854,559499.043],[172958.962,559500.722],[172958.303,559500.777],[172957.237,559484.161],[172957.22,559483.889],[172957.22,559483.884],[172957.218,559483.861],[172957.202,559483.661],[172957.201,559483.646],[172957.194,559483.566]]]}},{"type":"Feature","properties":{"relatieveHoogteligging":1,"lokaalID":"G1900.a1b6161acff24189a542ea1189f02c93","bgt_status":"bestaand","hoortBijTypeOverbrugging":"brug"},"geometry":{"type":"Polygon","coordinates":[[[172375.335,558999.603],[172384.991,558993.529],[172385.557,558993.145],[172385.734,558993.043],[172386.646,558994.468],[172380.012,558998.773],[172374.861,559001.814],[172373.835,559000.474],[172375.335,558999.603]]]}},{"type":"Feature","properties":{"relatieveHoogteligging":1,"lokaalID":"G1900.a8cbdba9b4774d9cb437acd667de2653","bgt_status":"bestaand","hoortBijTypeOverbrugging":"brug"},"geometry":{"type":"Polygon","coordinates":[[[172461.604,559212.566],[172463.142,559213.728],[172455.088,559223.594],[172453.768,559222.643],[172461.604,559212.566]]]}},{"type":"Feature","properties":{"relatieveHoogteligging":0,"lokaalID":"L0002.eaadcceed2554f94bab12d75f3644b5b","bgt_status":"bestaand","class":"pijler"},"geometry":{"type":"Polygon","coordinates":[[[172506.014,559581.827],[172490.244,559586.331],[172489.646,559584.397],[172505.458,559579.941],[172506.014,559581.827]]]}},{"type":"Feature","properties":{"relatieveHoogteligging":1,"lokaalID":"G1900.cd326a95ed574c71b6bab5b8e625d297","bgt_status":"bestaand","hoortBijTypeOverbrugging":"brug"},"geometry":{"type":"Polygon","coordinates":[[[172487.831,559552.96],[172487.832,559552.96],[172491.426,559551.898],[172491.432,559551.896],[172492.396,559551.65],[172492.458,559551.861],[172493.433,559551.585],[172492.315,559547.588],[172492.744,559547.495],[172493.285,559547.377],[172494.74,559552.677],[172495.83,559556.604],[172504.79,559588.438],[172505.626,559591.41],[172506.13,559593.202],[172506.346,559593.969],[172508.163,559600.426],[172508.375,559601.104],[172508.596,559601.811],[172507.693,559602.085],[172507.577,559601.672],[172506.695,559601.92],[172505.471,559602.264],[172502.002,559603.24],[172500.637,559603.624],[172500.06,559603.786],[172499.133,559604.047],[172499.254,559604.421],[172498.391,559604.66],[172497.955,559603.274],[172495.665,559595.092],[172495.461,559594.362],[172495.138,559593.209],[172494.138,559589.635],[172485.811,559559.878],[172484.594,559555.529],[172484.496,559555.557],[172483.052,559550.228],[172483.967,559549.948],[172485.078,559553.944],[172485.974,559553.691],[172486.393,559553.573],[172486.345,559553.399],[172487.831,559552.96]]]}},{"type":"Feature","properties":{"relatieveHoogteligging":1,"lokaalID":"G1900.e480ba3829ad497798446ed9f425b456","bgt_status":"bestaand","class":"dek","overbruggingIsBeweegbaar":"false","hoortBijTypeOverbrugging":"brug"},"geometry":{"type":"Polygon","coordinates":[[[172472.72,559610.932],[172474.677,559607.263],[172475.327,559606.112],[172492.438,559615.139],[172491.802,559616.394],[172490.105,559619.739],[172472.72,559610.932]]]}},{"type":"Feature","properties":{"relatieveHoogteligging":0,"lokaalID":"L0002.7f50f54bf7ee4975ab6600b14f1584b2","bgt_status":"bestaand"},"geometry":{"type":"Polygon","coordinates":[[[173466.03,559498.73],[173488.604,559497.506],[173488.696,559499.247],[173466.133,559500.436],[173466.03,559498.73]]]}}]}