{"type":"FeatureCollection","name":"bgt_kunstwerkdeel","crs":{"type":"name","properties":{"name":"urn:ogc:def:crs:EPSG::28992"}},"features":[{"type":"Feature","properties":{"relatieveHoogteligging":0,"lokaalID":"W0653.86af6b7ff48d43fc9b1fdfa905478c64","bgt_status":"bestaand","bgt_type":"gemaal","objecttype":"Kunstwerkdeel"},"geometry":{"type":"Polygon","coordinates":[[[171706.319,559117.889],[171707.978,559115.538],[171709.568,559116.99],[171707.978,559119.064],[171706.319,559117.889]]]}},{"type":"Feature","properties":{"relatieveHoogteligging":1,"lokaalID":"G1900.42536af5a60a4adb8e9575b6fcec7d5b","bgt_status":"bestaand","bgt_type":"steiger","objecttype":"Kunstwerkdeel"},"geometry":{"type":"Polygon","coordinates":[[[171984.042,559696.899],[171983.798,559696.681],[171984.655,559694.914],[171985.334,559695.515],[171984.042,559696.899]]]}},{"type":"Feature","properties":{"relatieveHoogteligging":1,"lokaalID":"G1900.7f80cd4ebc814ba4a47f91f8a7ccdad2","bgt_status":"bestaand","bgt_type":"steiger","objecttype":"Kunstwerkdeel"},"geometry":{"type":"Polygon","coordinates":[[[171981.371,559694.515],[171982.615,559693.106],[171983.21,559693.634],[171981.58,559694.701],[171981.371,559694.515]]]}},{"type":"Feature","properties":{"relatieveHoogteligging":1,"lokaalID":"G1900.71d3436a54dc48f58131c26f110f7210","bgt_status":"bestaand","bgt_type":"steiger","objecttype":"Kunstwerkdeel"},"geometry":{"type":"Polygon","coordinates":[[[171984.963,559698.638],[171984.649,559698.961],[171979.457,559694.075],[171979.792,559693.724],[171984.963,559698.638]]]}},{"type":"Feature","properties":{"relatieveHoogteligging":0,"lokaalID":"G1900.5480a441242046ada4fd50ef74d2cd5e","bgt_status":"bestaand","bgt_type":"steiger","objecttype":"Kunstwerkdeel"},"geometry":{"type":"Polygon","coordinates":[[[171838.317,559740.599],[171839.328,559742.002],[171822.543,559759.048],[171820.331,559761.294],[171819.116,559760.098],[171821.525,559757.652],[171838.317,559740.599]]]}},{"type":"Feature","properties":{"relatieveHoogteligging":1,"lokaalID":"G1900.5275d68aba5d4b97a34999b328929539","bgt_status":"bestaand","bgt_type":"steiger","objecttype":"Kunstwerkdeel"},"geometry":{"type":"Polygon","coordinates":[[[171840.8,559738.078],[171832.892,559727.09],[171834.347,559726.042],[171843.086,559738.186],[171839.328,559742.002],[171838.317,559740.599],[171840.8,559738.078]]]}},{"type":"Feature","properties":{"relatieveHoogteligging":1,"lokaalID":"G1900.e77ab679b0cc492f9498126942fcd2cb","bgt_status":"bestaand","bgt_type":"steiger","objecttype":"Kunstwerkdeel"},"geometry":{"type":"Polygon","coordinates":[[[172476.142,559238.706],[172477.458,559237.063],[172479.1,559238.378],[172477.785,559240.021],[172476.142,559238.706]]]}},{"type":"Feature","properties":{"relatieveHoogteligging":0,"lokaalID":"W0653.fec70cbb28a04450b8cf16a92c02dc16","bgt_status":"bestaand","bgt_type":"stuw","objecttype":"Kunstwerkdeel"},"geometry":{"type":"LineString","coordinates":[[172000.96,558938.725],[172004.358,558934.792]]}},{"type":"Feature","properties":{"relatieveHoogteligging":0,"lokaalID":"G1900.98693c4c929d4663a7023ad5948a5d1d","bgt_status":"bestaand","bgt_type":"steiger","objecttype":"Kunstwerkdeel"},"geometry":{"type":"Polygon","coordinates":[[[172479.742,559241.588],[172479.705,559241.635],[172479.636,559241.721],[172479.485,559241.91],[172477.674,559244.171],[172475.849,559242.709],[172473.02,559246.241],[172471.512,559245.029],[172474.194,559241.538],[172470.57,559238.79],[172472.118,559236.704],[172472.5,559236.19],[172472.716,559236.123],[172476.142,559238.706],[172477.785,559240.021],[172479.742,559241.588]]]}}]}