{"type":"FeatureCollection","name":"bgt_straatmeubilair","crs":{"type":"name","properties":{"name":"urn:ogc:def:crs:EPSG::28992"}},"features":[{"type":"Feature","properties":{"relatieveHoogteligging":0,"lokaalID":"G1900.126508f1d663451eb8f4859ca651785f","bgt_status":"bestaand","function":"niet-bgt","plus_type":"bank","objecttype":"Straatmeubilair"},"geometry":{"type":"Point","coordinates":[172619.896,559578.047]}},{"type":"Feature","properties":{"relatieveHoogteligging":0,"lokaalID":"G1900.491e1f91791b465188b3394b76fce097","bgt_status":"bestaand","function":"niet-bgt","plus_type":"bank","objecttype":"Straatmeubilair"},"geometry":{"type":"Point","coordinates":[172667.505,559570.564]}},{"type":"Feature","properties":{"relatieveHoogteligging":0,"lokaalID":"G1900.ed256f690d31445687d4dd6551f9f359","bgt_status":"bestaand","function":"niet-bgt","plus_type":"bank","objecttype":"Straatmeubilair"},"geometry":{"type":"Point","coordinates":[172761.234,559564.157]}}]}